59P/Kearns-Kwee,e,9.3415,312.8349,127.5618,4.487423,0.1036832,0.47496049,94.5145,03/16.0/2021,2000,g  7.0,6.0
# From MPEC 2015-M77
60P/Tsuchinshan,e,3.5936,267.5669,216.9213,3.521955,0.1491174,0.53543925,123.2887,03/16.0/2021,2000,g  9.0,4.0
# From MPEC 2015-Q71
61P/Shajn-Schaldach,e,5.9987,162.9804,221.8514,3.686117,0.1392677,0.42387664,278.1973,03/16.0/2021,2000,g  6.0,10.0
# From MPC109147
62P/Tsuchinshan,e,4.7930,69.9687,46.5744,3.347834,0.1609008,0.63177027,197.2976,03/16.0/2021,2000,g  8.0,10.0
# From MPC 84320
63P/Wild,e,19.7298,358.0186,169.1140,5.606141,0.0742520,0.64884155,215.5400,03/16.0/2021,2000,g 10.5,6.0
# From MPC111774
64P/Swift-Gehrels,e,8.9502,299.9993,97.0739,4.453987,0.1048530,0.68784430,90.4775,03/16.0/2021,2000,g  9.5,12.0
# From MPC104795
65P/Gunn,e,9.1804,62.0209,213.8584,3.885467,0.1286884,0.24956041,160.2430,03/16.0/2021,2000,g  5.0,6.0
# From MPC109147
66P/du Toit,e,18.6521,21.8414,257.3595,6.065678,0.0659759,0.78680928,68.0768,03/16.0/2021,2000,g  9.0,4.0
# From MPC 89011
67P/Churyumov-Gerasimenko,e,3.8709,36.3629,22.0942,3.458816,0.1532191,0.65004847,324.6054,03/16.0/2021,2000,g 11.0,4.0
# From MPC 75716
68P/Klemola,e,11.1101,175.0673,153.1185,4.952508,0.0894265,0.63764197,44.0765,03/16.0/2021,2000,g 10.0,4.0
# From MPC114607
69P/Taylor,e,22.0334,104.8277,343.4628,3.887890,0.1285680,0.41306526,93.7077,03/16.0/2021,2000,g  9.5,12.0
# From MPEC 2021-BE3
70P/Kojima,e,6.5982,119.2685,1.8443,3.676402,0.1398201,0.45355753,327.5388,03/16.0/2021,2000,g 11.0,6.0
# From MPC107051
71P/Clark,e,9.4387,59.4226,209.0427,3.138313,0.1772799,0.49401915,240.0771,03/16.0/2021,2000,g  9.8,6.0
# From MPC 89011
72P/Denning-Fujikawa,e,10.9392,26.6904,346.6831,4.311049,0.1101107,0.81832515,269.4837,03/16.0/2021,2000,g 17.5,10.0
# From MPC106348
73P/Schwassmann-Wachmann,e,11.2302,69.6354,199.4618,3.092968,0.1811928,0.68557346,264.4022,03/16.0/2021,2000,g 11.5,6.0
# From MPC106348
73P-T/Schwassmann-Wachmann,e,11.2323,69.6380,199.4432,3.094530,0.1810556,0.68577616,264.2031,03/16.0/2021,2000,g 11.5,6.0
# From MPEC 2021-BE3
74P/Smirnova-Chernykh,e,6.3211,74.6298,100.5123,4.282606,0.1112095,0.15181976,119.3757,03/16.0/2021,2000,g  5.0,6.0
# From MPEC 2020-SI8
76P/West-Kohoutek-Ikemura,e,30.4584,84.1185,359.9785,3.473002,0.1522813,0.53810798,77.1966,03/16.0/2021,2000,g  8.0,12.0
# From MPC100283
77P/Longmore,e,24.3200,14.7856,196.8471,3.621475,0.1430131,0.35211582,252.9791,03/16.0/2021,2000,g  7.0,8.0
# From MPEC 2016-U66
78P/Gehrels,e,6.2506,210.5224,192.6345,3.739079,0.1363192,0.46195646,97.2323,03/16.0/2021,2000,g  9.0,4.0
# From MPC 94675
79P/du Toit-Hartley,e,3.1480,280.5299,281.8064,2.942854,0.1952320,0.61886544,178.6612,03/16.0/2021,2000,g 16.0,4.0
# From MPEC 2014-P41
80P/Peters-Hartley,e,29.9338,259.8185,339.2532,4.024312,0.1220862,0.59887576,282.7485,03/16.0/2021,2000,g  9.0,4.0
# From MPC105241
81P/Wild,e,3.2368,136.0990,41.6899,3.451313,0.1537190,0.53704709,261.6530,03/16.0/2021,2000,g  7.0,6.0
# From MPEC 2020-L06
82P/Gehrels,e,1.1286,239.3094,226.7247,4.135706,0.1171870,0.12168989,116.5701,03/16.0/2021,2000,g  5.0,8.0
# From MPEC 2020-SI8
84P/Giclas,e,7.5521,108.1747,281.5708,3.548834,0.1474265,0.51566749,42.0396,03/16.0/2021,2000,g  9.5,8.0
# From MPC109147
86P/Wild,e,15.4740,72.3633,179.3658,3.602863,0.1441227,0.37248972,312.6573,03/16.0/2021,2000,g 11.0,6.0
# From MPEC 2020-SI8
87P/Bus,e,2.6038,181.8272,25.0728,3.441950,0.1543466,0.38976125,47.9096,03/16.0/2021,2000,g  7.2,10.0
# From MPEC 2019-JE2
88P/Howell,e,4.3837,56.6799,235.9015,3.105134,0.1801290,0.56426322,30.6946,03/16.0/2021,2000,g 11.0,6.0
# From MPC100283
89P/Russell,e,12.0694,41.3886,250.3264,3.753958,0.1355096,0.40862892,210.1497,03/16.0/2021,2000,g 11.5,6.0
# From MPC107051
90P/Gehrels,e,9.6454,13.2068,29.0743,6.053254,0.0661791,0.50998778,90.3872,03/16.0/2021,2000,g  8.5,6.0
# From MPC105241
91P/Russell,e,14.0897,247.8255,354.8297,3.892062,0.1283614,0.33088302,16.2393,03/16.0/2021,2000,g  7.5,6.0
# From MPEC 2014-J58
92P/Sanguin,e,19.4923,181.3726,163.7409,5.344616,0.0797681,0.66082842,175.8081,03/16.0/2021,2000,g 12.0,6.0
# From NK 2707
93P/Lovas,e,12.2032,339.6433,74.8212,4.383220,0.1074024,0.61243648,158.5412,03/16.0/2021,2000,g  9.0,4.0
# From MPEC 2020-W26
94P/Russell,e,6.1879,70.8594,92.4707,3.507275,0.1500546,0.36482718,240.4735,03/16.0/2021,2000,g  9.0,6.0
# From MPC 75717
95P/Chiron,e,6.9325,209.2668,339.7419,13.69733,0.0194424,0.37758860,178.5598,03/16.0/2021,2000,g  6.5,2.0
# From MPEC 2017-T14
96P/Machholz,e,57.6521,94.0235,14.7292,3.027907,0.1870640,0.96160155,231.6099,03/16.0/2021,2000,g  9.0,4.0
# From MPC 77020
97P/Metcalf-Brewington,e,17.9401,184.0877,229.8433,4.768320,0.0946577,0.46078684,328.1856,03/16.0/2021,2000,g  5.5,6.0
# From MPEC 2013-H38
98P/Takamizawa,e,10.5611,114.7115,157.9169,3.800249,0.1330411,0.56240013,9.3229,03/16.0/2021,2000,g  9.0,8.0
# From MPEC 2021-BE3
99P/Kowal,e,4.3386,28.1091,174.9604,6.110652,0.0652488,0.22990123,334.3636,03/16.0/2021,2000,g  4.5,6.0
# From MPEC 2013-O31
100P/Hartley,e,25.5661,37.7041,181.9949,3.432178,0.1550063,0.41238318,280.4865,03/16.0/2021,2000,g  9.0,4.0
# From MPC115887
101P/Chernykh,e,5.0528,116.2308,277.6990,5.802049,0.0705232,0.59588315,30.2137,03/16.0/2021,2000,g 12.0,4.8
# From MPC 86232
102P/Shoemaker,e,25.8849,339.3660,20.5398,3.812906,0.1323792,0.45712729,6.9641,03/16.0/2021,2000,g  6.5,8.0
# From MPEC 2018-HA5
103P/Hartley,e,13.5991,219.7298,181.2848,3.476249,0.1520680,0.69315273,216.9101,03/16.0/2021,2000,g  8.5,8.0
# From MPC100283
104P/Kowal,e,5.7178,207.4792,227.0363,3.208633,0.1714842,0.66582890,308.3787,03/16.0/2021,2000,g 16.0,4.0
# From MPC109147
105P/Singer Brewster,e,9.1711,192.4145,46.4841,3.467127,0.1526685,0.40958574,144.9161,03/16.0/2021,2000,g 11.5,6.0
# From MPC 92276
106P/Schuster,e,19.5354,48.8944,353.6484,3.763817,0.1349775,0.59385148,338.9778,03/16.0/2021,2000,g 14.0,4.8
# From MPEC 2015-M77
107P/Wilson-Harrington,e,2.7985,266.7983,95.3964,2.625390,0.2316932,0.63149481,237.9602,03/16.0/2021,2000,g  9.0,4.0
# From MPC 89313
108P/Ciffreo,e,11.4365,50.3038,354.3868,3.740274,0.1362539,0.55609255,335.7406,03/16.0/2021,2000,g  8.0,12.0
# From  105, 420
109P/Swift-Tuttle,e,113.9892,139.0376,152.9008,26.13336,0.0073775,0.96293028,76.2191,03/16.0/2021,2000,g  4.0,6.0
# From MPEC 2020-W26
110P/Hartley,e,11.7073,287.5337,167.4564,3.600990,0.1442352,0.31804197,328.7950,03/16.0/2021,2000,g  1.0,12.0
# From MPC 75718
111P/Helin-Roman-Crockett,e,4.2271,89.7665,1.0203,4.146596,0.1167257,0.10586375,349.2804,03/16.0/2021,2000,g  5.0,8.0
# From MPC118097
112P/Urata-Niijima,e,24.1938,31.8383,21.4892,3.525835,0.1488714,0.58984419,59.8504,03/16.0/2021,2000,g 14.0,6.0
# From MPEC 2015-E14
113P/Spitaler,e,5.2993,306.7167,115.3139,3.702504,0.1383441,0.42174287,298.9143,03/16.0/2021,2000,g 13.5,4.0
# From MPEC 2021-BE3
114P/Wiseman-Skiff,e,18.2726,271.0536,172.7822,3.545724,0.1476205,0.55472655,63.0279,03/16.0/2021,2000,g 11.5,6.0
# From MPEC 2020-SI8
115P/Maury,e,11.6774,176.0097,120.9831,4.273096,0.1115810,0.51868285,25.5920,03/16.0/2021,2000,g 10.5,6.0
# From MPC106348
116P/Wild,e,3.6034,20.9876,173.3525,3.489498,0.1512028,0.37066797,286.2062,03/16.0/2021,2000,g  2.5,10.0
# From MPEC 2015-S97
117P/Helin-Roman-Alu,e,8.7022,58.8452,222.8261,4.085169,0.1193683,0.25573942,302.9237,03/16.0/2021,2000,g  9.0,4.0
# From MPC 95735
118P/Shoemaker-Levy,e,10.0665,142.1231,314.1494,3.368482,0.1594236,0.45612981,261.9143,03/16.0/2021,2000,g 12.0,4.0
# From MPC 84628
119P/Parker-Hartley,e,7.4155,104.7467,321.5541,3.822054,0.1319043,0.39109580,292.4418,03/16.0/2021,2000,g  3.5,8.0
# From MPEC 2020-SI8
120P/Mueller,e,8.4900,358.6742,36.5518,3.961490,0.1250018,0.37450905,353.4848,03/16.0/2021,2000,g 12.0,4.0
# From MPEC 2020-SI8
121P/Shoemaker-Holt,e,20.1630,94.1309,11.3367,4.585223,0.1003838,0.18548950,276.3617,03/16.0/2021,2000,g  6.5,8.0
# From MPC 75718
122P/de Vico,e,84.8485,79.5443,13.0102,17.62803,0.0133168,0.96225754,124.0671,03/16.0/2021,2000,g  7.5,5.2
# From MPC114608
123P/West-Hartley,e,15.3010,46.2469,103.7247,3.872293,0.1293456,0.44760534,99.5516,03/16.0/2021,2000,g  4.0,10.0
# From MPEC 2020-SI8
124P/Mrkos,e,31.5153,0.3496,183.9248,3.319525,0.1629634,0.50349793,52.6427,03/16.0/2021,2000,g 13.5,2.8
# From MPEC 2015-M77
125P/Spacewatch,e,9.9866,153.1517,87.2381,3.125691,0.1783549,0.51278642,166.1263,03/16.0/2021,2000,g  9.0,4.0
# From MPC 66205
126P/IRAS,e,45.8664,357.8598,356.5171,5.640599,0.0735726,0.69622794,298.0985,03/16.0/2021,2000,g  9.0,4.0
# From MPC 84321
127P/Holt-Olmstead,e,14.2969,13.6395,6.4889,3.450786,0.1537542,0.35987257,281.1046,03/16.0/2021,2000,g 11.0,6.0
# From MPC 89014
128P/Shoemaker-Holt,e,4.3671,214.2959,210.3199,4.492615,0.1035036,0.32063632,158.0241,03/16.0/2021,2000,g  8.5,4.0
# From MPEC 2019-TG9
129P/Shoemaker-Levy,e,3.4425,184.8844,307.8989,4.282886,0.1111986,0.08398211,290.1974,03/16.0/2021,2000,g 11.0,4.0
# From MPC 78188
130P/McNaught-Hughes,e,6.0630,70.2314,245.9969,3.383832,0.1583401,0.46136594,181.8444,03/16.0/2021,2000,g 10.0,6.0
# From MPC102101
131P/Mueller,e,7.3548,214.1614,179.0283,3.680878,0.1395652,0.34384025,109.1035,03/16.0/2021,2000,g 11.0,4.0
# From MPEC 2020-HN5
132P/Helin-Roman-Alu,e,5.3803,174.0169,216.3488,3.888533,0.1285362,0.56506961,328.8770,03/16.0/2021,2000,g 11.0,6.0
# From MPC 94676
133P/Elst-Pizarro,e,1.3891,160.1123,131.8073,3.164496,0.1750843,0.15700789,158.6663,03/16.0/2021,2000,g 15.4,2.0
# From MPC 89012
134P/Kowal-Vavrova,e,4.3408,202.0755,18.8860,6.259704,0.0629323,0.58622509,156.8620,03/16.0/2021,2000,g 11.5,4.0
# From MPEC 2015-E14
135P/Shoemaker-Levy,e,6.0616,213.0324,22.2860,3.803461,0.1328727,0.29535134,308.5526,03/16.0/2021,2000,g  9.0,4.0
# From MPEC 2020-W26
136P/Mueller,e,9.4244,137.4481,224.8925,4.193890,0.1147568,0.29263603,200.6691,03/16.0/2021,2000,g 11.0,4.0
# From MPEC 2020-HN5
137P/Shoemaker-Levy,e,4.8536,233.0408,141.0248,4.520543,0.1025459,0.57343989,84.4310,03/16.0/2021,2000,g 11.0,4.0
# From MPEC 2016-U66
